{
  "links" : {
    "next" : "https://api.nasa.gov/neo/rest/v1/feed?start_date=2010-10-16&end_date=2010-10-16&detailed=true&api_key=t0TVs3DtDT2H8Oy2Zy8m2eVrNsAVKAexjcZXUckd",
    "prev" : "https://api.nasa.gov/neo/rest/v1/feed?start_date=2010-10-14&end_date=2010-10-14&detailed=true&api_key=t0TVs3DtDT2H8Oy2Zy8m2eVrNsAVKAexjcZXUckd",
    "self" : "https://api.nasa.gov/neo/rest/v1/feed?start_date=2010-10-15&end_date=2010-10-15&detailed=true&api_key=t0TVs3DtDT2H8Oy2Zy8m2eVrNsAVKAexjcZXUckd"
  },
  "element_count" : 11,
  "near_earth_objects" : {
    "2010-10-15" : [ {
      "links" : {
        "self" : "https://api.nasa.gov/neo/rest/v1/neo/3548530?api_key=t0TVs3DtDT2H8Oy2Zy8m2eVrNsAVKAexjcZXUckd"
      },
      "neo_reference_id" : "3548530",
      "name" : "(2010 TH54)",
      "nasa_jpl_url" : "http://ssd.jpl.nasa.gov/sbdb.cgi?sstr=3548530",
      "absolute_magnitude_h" : 23.9,
      "estimated_diameter" : {
        "kilometers" : {
          "estimated_diameter_min" : 0.04411182,
          "estimated_diameter_max" : 0.0986370281
        },
        "meters" : {
          "estimated_diameter_min" : 44.1118199997,
          "estimated_diameter_max" : 98.6370281305
        },
        "miles" : {
          "estimated_diameter_min" : 0.0274098057,
          "estimated_diameter_max" : 0.0612901888
        },
        "feet" : {
          "estimated_diameter_min" : 144.7238235278,
          "estimated_diameter_max" : 323.6123073718
        }
      },
      "is_potentially_hazardous_asteroid" : false,
      "close_approach_data" : [ {
        "close_approach_date" : "2010-10-15",
        "epoch_date_close_approach" : 1287126000000,
        "relative_velocity" : {
          "kilometers_per_second" : "8.6889850466",
          "kilometers_per_hour" : "31280.3461676006",
          "miles_per_hour" : "19436.3906506405"
        },
        "miss_distance" : {
          "astronomical" : "0.0594194958",
          "lunar" : "23.1141834259",
          "kilometers" : "8889030",
          "miles" : "5523387"
        },
        "orbiting_body" : "Earth"
      } ],
      "orbital_data" : {
        "orbit_id" : "13",
        "orbit_determination_date" : "2017-04-06 08:56:22",
        "orbit_uncertainty" : "8",
        "minimum_orbit_intersection" : ".0481181",
        "jupiter_tisserand_invariant" : "4.490",
        "epoch_osculation" : "2455481.5",
        "eccentricity" : ".3531830552798929",
        "semi_major_axis" : "1.486495377882348",
        "inclination" : "8.474792191178373",
        "ascending_node_longitude" : "11.43780582744846",
        "orbital_period" : "661.978327921808",
        "perihelion_distance" : ".9614903986624215",
        "perihelion_argument" : "55.23735782630206",
        "aphelion_distance" : "2.011500357102275",
        "perihelion_time" : "2455521.884094603833",
        "mean_anomaly" : "338.0381419690568",
        "mean_motion" : ".543824449858006",
        "equinox" : "J2000"
      }
    }, {
      "links" : {
        "self" : "https://api.nasa.gov/neo/rest/v1/neo/3552576?api_key=t0TVs3DtDT2H8Oy2Zy8m2eVrNsAVKAexjcZXUckd"
      },
      "neo_reference_id" : "3552576",
      "name" : "(2010 WH3)",
      "nasa_jpl_url" : "http://ssd.jpl.nasa.gov/sbdb.cgi?sstr=3552576",
      "absolute_magnitude_h" : 20.7,
      "estimated_diameter" : {
        "kilometers" : {
          "estimated_diameter_min" : 0.1925550782,
          "estimated_diameter_max" : 0.4305662442
        },
        "meters" : {
          "estimated_diameter_min" : 192.5550781879,
          "estimated_diameter_max" : 430.566244241
        },
        "miles" : {
          "estimated_diameter_min" : 0.1196481415,
          "estimated_diameter_max" : 0.2675413778
        },
        "feet" : {
          "estimated_diameter_min" : 631.7424027221,
          "estimated_diameter_max" : 1412.6189567557
        }
      },
      "is_potentially_hazardous_asteroid" : false,
      "close_approach_data" : [ {
        "close_approach_date" : "2010-10-15",
        "epoch_date_close_approach" : 1287126000000,
        "relative_velocity" : {
          "kilometers_per_second" : "10.5686179712",
          "kilometers_per_hour" : "38047.0246963891",
          "miles_per_hour" : "23640.9415398202"
        },
        "miss_distance" : {
          "astronomical" : "0.1681742927",
          "lunar" : "65.4197998047",
          "kilometers" : "25158516",
          "miles" : "15632778"
        },
        "orbiting_body" : "Earth"
      } ],
      "orbital_data" : {
        "orbit_id" : "16",
        "orbit_determination_date" : "2017-04-06 08:55:34",
        "orbit_uncertainty" : "7",
        "minimum_orbit_intersection" : ".104408",
        "jupiter_tisserand_invariant" : "3.110",
        "epoch_osculation" : "2458000.5",
        "eccentricity" : ".5897515225248614",
        "semi_major_axis" : "2.657423557894574",
        "inclination" : "3.888950867308519",
        "ascending_node_longitude" : "53.8259792618328",
        "orbital_period" : "1582.302804698778",
        "perihelion_distance" : "1.090203968632815",
        "perihelion_argument" : "303.2420557198286",
        "aphelion_distance" : "4.224643147156333",
        "perihelion_time" : "2458621.944173228417",
        "mean_anomaly" : "218.6111952163166",
        "mean_motion" : ".2275165024867241",
        "equinox" : "J2000"
      }
    }, {
      "links" : {
        "self" : "https://api.nasa.gov/neo/rest/v1/neo/2004197?api_key=t0TVs3DtDT2H8Oy2Zy8m2eVrNsAVKAexjcZXUckd"
      },
      "neo_reference_id" : "2004197",
      "name" : "4197 Morpheus (1982 TA)",
      "nasa_jpl_url" : "http://ssd.jpl.nasa.gov/sbdb.cgi?sstr=2004197",
      "absolute_magnitude_h" : 14.6,
      "estimated_diameter" : {
        "kilometers" : {
          "estimated_diameter_min" : 3.1956188672,
          "estimated_diameter_max" : 7.1456210173
        },
        "meters" : {
          "estimated_diameter_min" : 3195.6188672131,
          "estimated_diameter_max" : 7145.6210172693
        },
        "miles" : {
          "estimated_diameter_min" : 1.9856648911,
          "estimated_diameter_max" : 4.4400816771
        },
        "feet" : {
          "estimated_diameter_min" : 10484.3142043074,
          "estimated_diameter_max" : 23443.6392582979
        }
      },
      "is_potentially_hazardous_asteroid" : false,
      "close_approach_data" : [ {
        "close_approach_date" : "2010-10-15",
        "epoch_date_close_approach" : 1287126000000,
        "relative_velocity" : {
          "kilometers_per_second" : "30.7600954292",
          "kilometers_per_hour" : "110736.3435451924",
          "miles_per_hour" : "68807.2574656224"
        },
        "miss_distance" : {
          "astronomical" : "0.2508292169",
          "lunar" : "97.5725631714",
          "kilometers" : "37523516",
          "miles" : "23316032"
        },
        "orbiting_body" : "Earth"
      } ],
      "orbital_data" : {
        "orbit_id" : "106",
        "orbit_determination_date" : "2017-09-22 06:50:41",
        "orbit_uncertainty" : "0",
        "minimum_orbit_intersection" : ".0987093",
        "jupiter_tisserand_invariant" : "3.090",
        "epoch_osculation" : "2458000.5",
        "eccentricity" : ".7715788638816762",
        "semi_major_axis" : "2.296847863143727",
        "inclination" : "12.57662356140398",
        "ascending_node_longitude" : "7.18437529909202",
        "orbital_period" : "1271.442637792404",
        "perihelion_distance" : ".5246485983902345",
        "perihelion_argument" : "122.4044612938997",
        "aphelion_distance" : "4.06904712789722",
        "perihelion_time" : "2458071.558672224904",
        "mean_anomaly" : "339.8802389973472",
        "mean_motion" : ".2831429348830595",
        "equinox" : "J2000"
      }
    } ]
  }
}